,BusinessNames,Address,State,Phone,Urls
0,Marufuku Ramen SF,Located in Japan Center,CA,(415) 872-9786,yelp.com/biz/marufuku-ramen-sf-san-francisco
1,Ken,252 Divisadero St,CA,252 Divisadero St,yelp.com/biz/ken-san-francisco
2,Kitchen Story,3499 16th St,CA,(415) 525-4905,yelp.com/biz/kitchen-story-san-francisco
3,Farmhouse Kitchen Thai Cuisine,710 Florida St,CA,(415) 814-2920,yelp.com/biz/farmhouse-kitchen-thai-cuisine-san-francisco
4,Fog Harbor Fish House,Located in Pier 39,CA,(415) 421-2442,yelp.com/biz/fog-harbor-fish-house-san-francisco-2
5,Sweet Maple,2101 Sutter St,CA,(415) 655-9169,yelp.com/biz/sweet-maple-san-francisco
6,Starbelly,3583 16th St,CA,(415) 252-7500,yelp.com/biz/starbelly-san-francisco
7,Beretta,1199 Valencia St,CA,(415) 695-1199,yelp.com/biz/beretta-san-francisco
8,Beretta Pop Up,661 Divisadero St,CA,(415) 654-5211,yelp.com/biz/beretta-pop-up-san-francisco-2
9,Tastebuds,600 5th Ave,CA,(415) 668-9298,yelp.com/biz/tastebuds-san-francisco-2
10,Tastebuds,600 5th Ave,CA,(415) 668-9298,yelp.com/biz/tastebuds-san-francisco-2
11,The Snug,2301 Fillmore St,CA,(415) 562-5092,yelp.com/biz/the-snug-san-francisco
12,Zazie,941 Cole St,CA,(415) 564-5332,yelp.com/biz/zazie-san-francisco
13,El Techo,2516 Mission St,CA,(415) 550-6970,yelp.com/biz/el-techo-san-francisco
14,San Tung,1031 Irving St,CA,(415) 242-0828,yelp.com/biz/san-tung-san-francisco-2
15,Santeria,2251 Market St,CA,(415) 757-0156,yelp.com/biz/santeria-san-francisco
16,Nopa,560 Divisadero St,CA,(415) 864-8643,yelp.com/biz/nopa-san-francisco
17,Hotbird,1355 Market St,CA,1355 Market St,yelp.com/biz/hotbird-san-francisco-4
18,The Front Porch,65 29th St,CA,(415) 695-7800,yelp.com/biz/the-front-porch-san-francisco
19,Burma Superstar,309 Clement St,CA,(415) 387-2147,yelp.com/biz/burma-superstar-san-francisco-2
20,The Bird,115 New Montgomery St,CA,(415) 872-9825,yelp.com/biz/the-bird-san-francisco
21,Brenda’s Meat & Three,919 Divisadero St,CA,(415) 926-8657,yelp.com/biz/brendas-meat-and-three-san-francisco-3
22,Foghorn Taproom,534 Irving St,CA,(415) 592-2341,yelp.com/biz/foghorn-taproom-san-francisco-2
23,Damn Fine,3410 Judah St,CA,3410 Judah St,yelp.com/biz/damn-fine-san-francisco-2
24,Horsefeather,528 Divisidero St,CA,(415) 817-1939,yelp.com/biz/horsefeather-san-francisco-2
25,a Mano,450 Hayes St,CA,(415) 506-7401,yelp.com/biz/a-mano-san-francisco-2
26,Brenda’s French Soul Food,652 Polk St,CA,(415) 345-8100,yelp.com/biz/brendas-french-soul-food-san-francisco-5
27,Che Fico Alimentari,834 Divisadero St,CA,(415) 416-6980,yelp.com/biz/che-fico-alimentari-san-francisco
28,MaMa Ji’s,4416 18th St,CA,(415) 626-4416,yelp.com/biz/mama-jis-san-francisco-2
29,DragonEats,1671 Haight St,CA,(415) 522-6689,yelp.com/biz/dragoneats-san-francisco-7
30,Mahila,1320 Castro St,CA,(628) 867-3570,yelp.com/biz/mahila-san-francisco-2
31,Konomama,4601 Geary Blvd,CA,(415) 933-6295,yelp.com/biz/konomama-san-francisco
32,Um Ma,1220 9th Ave,CA,(415) 566-5777,yelp.com/biz/um-ma-san-francisco-3
33,Señor Sisig,990 Valencia St,CA,(855) 747-4455,yelp.com/biz/se%C3%B1or-sisig-san-francisco-9
34,Dumpling Baby China Bistro,3751 Geary Blvd,CA,(415) 592-8232,yelp.com/biz/dumpling-baby-china-bistro-san-francisco-4
35,Souvla,531 Divisadero St,CA,(415) 400-5458,yelp.com/biz/souvla-san-francisco-3
36,Blind Butcher,4058 18th St,CA,(415) 529-2478,yelp.com/biz/blind-butcher-san-francisco-2
37,State Bird Provisions,1529 Fillmore St,CA,(415) 795-1272,yelp.com/biz/state-bird-provisions-san-francisco
38,Nara Restaurant & Sake Bar,518 Haight St,CA,(415) 638-6124,yelp.com/biz/nara-restaurant-and-sake-bar-san-francisco
39,Gozu,201 Spear St,CA,(415) 523-9745,yelp.com/biz/gozu-san-francisco
40,Devil’s Teeth Baking Company,3876 Noriega St,CA,(415) 683-5533,yelp.com/biz/devils-teeth-baking-company-san-francisco
41,Sotto Mare Oysteria & Seafood,Located in Dante Benedetti Hotel & Sro,CA,(415) 398-3181,yelp.com/biz/sotto-mare-oysteria-and-seafood-san-francisco
42,Tacos El Patrón,1500 S Van Ness Ave,CA,(415) 829-7315,yelp.com/biz/tacos-el-patr%C3%B3n-san-francisco-2
43,Willkommen,2198 Market St,CA,(415) 766-9225,yelp.com/biz/willkommen-san-francisco-3
44,Hook Fish,4542 Irving St,CA,4542 Irving St,yelp.com/biz/hook-fish-san-francisco-6
45,Cha Cha Cha,1801 Haight St,CA,(415) 386-7670,yelp.com/biz/cha-cha-cha-san-francisco-4
46,Nopalito,306 Broderick St,CA,(415) 437-0303,yelp.com/biz/nopalito-san-francisco
47,Ragazza,311 Divisadero St,CA,(415) 255-1133,yelp.com/biz/ragazza-san-francisco
48,Beit Rima,86 Carl St,CA,(415) 566-1274,yelp.com/biz/beit-rima-san-francisco-4
49,Vive La Tarte,4026 24th St,CA,(415) 780-5818,yelp.com/biz/vive-la-tarte-san-francisco-5
